TANAGER-1               
1 60507U 24149AR  26193.23246483  .00000202  00000+0  63026-5 0  9996
2 60507  97.2303 287.3864 0001965 177.3872 182.7387 15.43907540106908
