{"fetched_at":"2026-07-13T07:47:56.615Z","source":"https://celestrak.org/NORAD/elements/gp.php?GROUP=planet&FORMAT=JSON","constellation":"tanager","records":[{"OBJECT_NAME":"TANAGER-1","OBJECT_ID":"2024-149AR","EPOCH":"2026-07-12T05:34:44.961312","CLASSIFICATION_TYPE":"U","MEAN_MOTION":15.4390754,"ECCENTRICITY":0.0001965,"INCLINATION":97.2303,"RA_OF_ASC_NODE":287.3864,"ARG_OF_PERICENTER":177.3872,"MEAN_ANOMALY":182.7387,"EPHEMERIS_TYPE":0,"NORAD_CAT_ID":60507,"ELEMENT_SET_NO":999,"REV_AT_EPOCH":10690,"BSTAR":0.0000063026,"MEAN_MOTION_DOT":0.00000202,"MEAN_MOTION_DDOT":0}]}
